WORLDVIEW-1 (WV-1)      
1 32060U 07041A   26178.92658260  .00005952  00000+0  24585-3 0  9992
2 32060  97.3886 298.5166 0001249 337.4022  22.7161 15.24381507 44517
WORLDVIEW-2 (WV-2)      
1 35946U 09055A   26178.94962813  .00000134  00000+0  58883-4 0  9995
2 35946  98.4764 252.2514 0004394 174.5496 185.5739 14.37902319877193
YAOGAN-10               
1 36834U 10038A   26178.98772963  .00001294  00000+0  15665-3 0  9992
2 36834  97.8976 202.3057 0001723  85.1526 298.1773 14.85380543858819
VNREDSAT 1              
1 39160U 13021B   26178.94980435  .00000477  00000+0  97721-4 0  9999
2 39160  97.9081 231.9530 0001727  84.7501 275.3899 14.64867117701860
WORLDVIEW-3 (WV-3)      
1 40115U 14048A   26178.94816125  .00000793  00000+0  99169-4 0  9994
2 40115  97.8564 253.6323 0000119  31.2268 328.8954 14.85038529643501
UMBRA-07                
1 58297U 23174AT  26178.91275035  .00010123  00000+0  63802-3 0  9992
2 58297  97.3788 234.2691 0003805  63.8057 296.3563 15.09322505145036
UMBRA-09                
1 60541U 24149CB  26178.81077726  .00013245  00000+0  64775-3 0  9994
2 60541  97.6979 266.1994 0001152 239.1859 120.9261 15.18344685102333
UMBRA-10                
1 60547U 24149CH  26178.81033373  .00015587  00000+0  76130-3 0  9999
2 60547  97.6982 266.2276 0000426 171.8127 188.3113 15.18352184102348
UMBRA-11                
1 66748U 25276CL  26178.93865585  .00019423  00000+0  73140-3 0  9992
2 66748  97.4203 253.5043 0001016 247.5598 112.5533 15.27142632 32130
UMBRA-12                
1 67371U 26004J   26178.92387145  .00004342  00000+0  46245-3 0  9995
2 67371  97.8010 177.5448 0007920  96.7326 263.4793 14.89400855 24901
