{
 "generated_at": "2026-06-28T08:21:54Z",
 "sources": [
  {
   "name": "CelesTrak",
   "url": "https://celestrak.org/NORAD/elements/",
   "license": "frei verfügbar; Attribution. Ursprünglich USSPACECOM/Space-Track."
  },
  {
   "name": "GCAT (J. McDowell, planet4589.org)",
   "url": "https://planet4589.org/space/gcat/",
   "license": "CC-BY 4.0"
  }
 ],
 "satellites": [
  {
   "norad": 58297,
   "name": "UMBRA-07",
   "intl": "2023-174AT",
   "group": "sar",
   "gcat": {
    "class": "B",
    "category": "IMG-R",
    "owner": "UMBRA",
    "state": "US"
   },
   "omm": {
    "OBJECT_NAME": "UMBRA-07",
    "OBJECT_ID": "2023-174AT",
    "EPOCH": "2026-06-27T21:54:21.630240",
    "MEAN_MOTION": 15.09322505,
    "ECCENTRICITY": 0.00038059,
    "INCLINATION": 97.3788,
    "RA_OF_ASC_NODE": 234.2691,
    "ARG_OF_PERICENTER": 63.8057,
    "MEAN_ANOMALY": 296.3563,
    "EPHEMERIS_TYPE": 0,
    "CLASSIFICATION_TYPE": "U",
    "NORAD_CAT_ID": 58297,
    "ELEMENT_SET_NO": 999,
    "REV_AT_EPOCH": 14503,
    "BSTAR": 0.00063801596,
    "MEAN_MOTION_DOT": 0.00010123,
    "MEAN_MOTION_DDOT": 0
   }
  },
  {
   "norad": 60541,
   "name": "UMBRA-09",
   "intl": "2024-149CB",
   "group": "sar",
   "gcat": {
    "class": "B",
    "category": "IMG-R",
    "owner": "UMBRA",
    "state": "US"
   },
   "omm": {
    "OBJECT_NAME": "UMBRA-09",
    "OBJECT_ID": "2024-149CB",
    "EPOCH": "2026-06-27T19:27:31.155264",
    "MEAN_MOTION": 15.18344685,
    "ECCENTRICITY": 0.00011525,
    "INCLINATION": 97.6979,
    "RA_OF_ASC_NODE": 266.1994,
    "ARG_OF_PERICENTER": 239.1859,
    "MEAN_ANOMALY": 120.9261,
    "EPHEMERIS_TYPE": 0,
    "CLASSIFICATION_TYPE": "U",
    "NORAD_CAT_ID": 60541,
    "ELEMENT_SET_NO": 999,
    "REV_AT_EPOCH": 10233,
    "BSTAR": 0.00064775364,
    "MEAN_MOTION_DOT": 0.00013245,
    "MEAN_MOTION_DDOT": 0
   }
  },
  {
   "norad": 60547,
   "name": "UMBRA-10",
   "intl": "2024-149CH",
   "group": "sar",
   "gcat": {
    "class": "B",
    "category": "IMG-R",
    "owner": "UMBRA",
    "state": "US"
   },
   "omm": {
    "OBJECT_NAME": "UMBRA-10",
    "OBJECT_ID": "2024-149CH",
    "EPOCH": "2026-06-27T19:26:52.834272",
    "MEAN_MOTION": 15.18352184,
    "ECCENTRICITY": 0.00004268,
    "INCLINATION": 97.6982,
    "RA_OF_ASC_NODE": 266.2276,
    "ARG_OF_PERICENTER": 171.8127,
    "MEAN_ANOMALY": 188.3113,
    "EPHEMERIS_TYPE": 0,
    "CLASSIFICATION_TYPE": "U",
    "NORAD_CAT_ID": 60547,
    "ELEMENT_SET_NO": 999,
    "REV_AT_EPOCH": 10234,
    "BSTAR": 0.00076129645,
    "MEAN_MOTION_DOT": 0.00015587,
    "MEAN_MOTION_DDOT": 0
   }
  },
  {
   "norad": 66748,
   "name": "UMBRA-11",
   "intl": "2025-276CL",
   "group": "sar",
   "gcat": {
    "class": "B",
    "category": "IMG-R",
    "owner": "UMBRA",
    "state": "US"
   },
   "omm": {
    "OBJECT_NAME": "UMBRA-11",
    "OBJECT_ID": "2025-276CL",
    "EPOCH": "2026-06-27T22:31:39.865440",
    "MEAN_MOTION": 15.27142632,
    "ECCENTRICITY": 0.00010167,
    "INCLINATION": 97.4203,
    "RA_OF_ASC_NODE": 253.5043,
    "ARG_OF_PERICENTER": 247.5598,
    "MEAN_ANOMALY": 112.5533,
    "EPHEMERIS_TYPE": 0,
    "CLASSIFICATION_TYPE": "U",
    "NORAD_CAT_ID": 66748,
    "ELEMENT_SET_NO": 999,
    "REV_AT_EPOCH": 3213,
    "BSTAR": 0.00073139652,
    "MEAN_MOTION_DOT": 0.00019423,
    "MEAN_MOTION_DDOT": 0
   }
  },
  {
   "norad": 67371,
   "name": "UMBRA-12",
   "intl": "2026-004J",
   "group": "sar",
   "gcat": {
    "class": "B",
    "category": "IMG-R",
    "owner": "UMBRA",
    "state": "US"
   },
   "omm": {
    "OBJECT_NAME": "UMBRA-12",
    "OBJECT_ID": "2026-004J",
    "EPOCH": "2026-06-27T22:10:22.493280",
    "MEAN_MOTION": 14.89400855,
    "ECCENTRICITY": 0.00079202,
    "INCLINATION": 97.801,
    "RA_OF_ASC_NODE": 177.5448,
    "ARG_OF_PERICENTER": 96.7326,
    "MEAN_ANOMALY": 263.4793,
    "EPHEMERIS_TYPE": 0,
    "CLASSIFICATION_TYPE": "U",
    "NORAD_CAT_ID": 67371,
    "ELEMENT_SET_NO": 999,
    "REV_AT_EPOCH": 2490,
    "BSTAR": 0.00046245449,
    "MEAN_MOTION_DOT": 0.00004342,
    "MEAN_MOTION_DDOT": 0
   }
  },
  {
   "norad": 39160,
   "name": "VNREDSAT 1",
   "intl": "2013-021B",
   "group": "resource",
   "gcat": {
    "class": "C",
    "category": "IMG",
    "owner": "VAST",
    "state": "VN"
   },
   "omm": {
    "OBJECT_NAME": "VNREDSAT 1",
    "OBJECT_ID": "2013-021B",
    "EPOCH": "2026-06-27T22:47:43.095840",
    "MEAN_MOTION": 14.64867117,
    "ECCENTRICITY": 0.00017272,
    "INCLINATION": 97.9081,
    "RA_OF_ASC_NODE": 231.953,
    "ARG_OF_PERICENTER": 84.7501,
    "MEAN_ANOMALY": 275.3899,
    "EPHEMERIS_TYPE": 0,
    "CLASSIFICATION_TYPE": "U",
    "NORAD_CAT_ID": 39160,
    "ELEMENT_SET_NO": 999,
    "REV_AT_EPOCH": 70186,
    "BSTAR": 0.000097721218,
    "MEAN_MOTION_DOT": 0.00000477,
    "MEAN_MOTION_DDOT": 0
   }
  },
  {
   "norad": 32060,
   "name": "WORLDVIEW-1 (WV-1)",
   "intl": "2007-041A",
   "group": "resource",
   "gcat": {
    "class": "B",
    "category": "IMG",
    "owner": "DGLO",
    "state": "US"
   },
   "omm": {
    "OBJECT_NAME": "WORLDVIEW-1 (WV-1)",
    "OBJECT_ID": "2007-041A",
    "EPOCH": "2026-06-27T22:14:16.736640",
    "MEAN_MOTION": 15.24381507,
    "ECCENTRICITY": 0.00012492,
    "INCLINATION": 97.3886,
    "RA_OF_ASC_NODE": 298.5166,
    "ARG_OF_PERICENTER": 337.4022,
    "MEAN_ANOMALY": 22.7161,
    "EPHEMERIS_TYPE": 0,
    "CLASSIFICATION_TYPE": "U",
    "NORAD_CAT_ID": 32060,
    "ELEMENT_SET_NO": 999,
    "REV_AT_EPOCH": 4451,
    "BSTAR": 0.0002458548,
    "MEAN_MOTION_DOT": 0.00005952,
    "MEAN_MOTION_DDOT": 0
   }
  },
  {
   "norad": 35946,
   "name": "WORLDVIEW-2 (WV-2)",
   "intl": "2009-055A",
   "group": "resource",
   "gcat": {
    "class": "B",
    "category": "IMG",
    "owner": "DGLO",
    "state": "US"
   },
   "omm": {
    "OBJECT_NAME": "WORLDVIEW-2 (WV-2)",
    "OBJECT_ID": "2009-055A",
    "EPOCH": "2026-06-27T22:47:27.870432",
    "MEAN_MOTION": 14.37902319,
    "ECCENTRICITY": 0.00043947,
    "INCLINATION": 98.4764,
    "RA_OF_ASC_NODE": 252.2514,
    "ARG_OF_PERICENTER": 174.5496,
    "MEAN_ANOMALY": 185.5739,
    "EPHEMERIS_TYPE": 0,
    "CLASSIFICATION_TYPE": "U",
    "NORAD_CAT_ID": 35946,
    "ELEMENT_SET_NO": 999,
    "REV_AT_EPOCH": 87719,
    "BSTAR": 0.000058883285,
    "MEAN_MOTION_DOT": 0.00000134,
    "MEAN_MOTION_DDOT": 0
   }
  },
  {
   "norad": 40115,
   "name": "WORLDVIEW-3 (WV-3)",
   "intl": "2014-048A",
   "group": "resource",
   "gcat": {
    "class": "B",
    "category": "IMG",
    "owner": "DGLO",
    "state": "US"
   },
   "omm": {
    "OBJECT_NAME": "WORLDVIEW-3 (WV-3)",
    "OBJECT_ID": "2014-048A",
    "EPOCH": "2026-06-27T22:45:21.132000",
    "MEAN_MOTION": 14.85038529,
    "ECCENTRICITY": 0.00001192,
    "INCLINATION": 97.8564,
    "RA_OF_ASC_NODE": 253.6323,
    "ARG_OF_PERICENTER": 31.2268,
    "MEAN_ANOMALY": 328.8954,
    "EPHEMERIS_TYPE": 0,
    "CLASSIFICATION_TYPE": "U",
    "NORAD_CAT_ID": 40115,
    "ELEMENT_SET_NO": 999,
    "REV_AT_EPOCH": 64350,
    "BSTAR": 0.000099169475,
    "MEAN_MOTION_DOT": 0.00000793,
    "MEAN_MOTION_DDOT": 0
   }
  },
  {
   "norad": 36834,
   "name": "YAOGAN-10",
   "intl": "2010-038A",
   "group": "resource",
   "gcat": {
    "class": null,
    "category": null,
    "owner": null,
    "state": null
   },
   "omm": {
    "OBJECT_NAME": "YAOGAN-10",
    "OBJECT_ID": "2010-038A",
    "EPOCH": "2026-06-27T23:42:19.840032",
    "MEAN_MOTION": 14.85380543,
    "ECCENTRICITY": 0.00017233,
    "INCLINATION": 97.8976,
    "RA_OF_ASC_NODE": 202.3057,
    "ARG_OF_PERICENTER": 85.1526,
    "MEAN_ANOMALY": 298.1773,
    "EPHEMERIS_TYPE": 0,
    "CLASSIFICATION_TYPE": "U",
    "NORAD_CAT_ID": 36834,
    "ELEMENT_SET_NO": 999,
    "REV_AT_EPOCH": 85881,
    "BSTAR": 0.00015665122,
    "MEAN_MOTION_DOT": 0.00001294,
    "MEAN_MOTION_DDOT": 0
   }
  }
 ]
}
